[{"OBJECT_NAME":"STARLINK-30769","OBJECT_ID":"2023-162W","EPOCH":"2026-03-09T22:00:01.999584","MEAN_MOTION":15.26764991,"ECCENTRICITY":0.00013209,"INCLINATION":43.001,"RA_OF_ASC_NODE":130.8086,"ARG_OF_PERICENTER":263.593,"MEAN_ANOMALY":194.3047,"EPHEMERIS_TYPE":0,"CLASSIFICATION_TYPE":"U","NORAD_CAT_ID":58138,"ELEMENT_SET_NO":999,"REV_AT_EPOCH":578,"BSTAR":0.00016489933,"MEAN_MOTION_DOT":4.169e-5,"MEAN_MOTION_DDOT":0},{"OBJECT_NAME":"DMSP 5D-2 F14 DEB","OBJECT_ID":"1997-012E","EPOCH":"2026-03-09T23:05:42.500544","MEAN_MOTION":15.25086034,"ECCENTRICITY":0.00083151,"INCLINATION":98.7933,"RA_OF_ASC_NODE":208.6058,"ARG_OF_PERICENTER":272.9178,"MEAN_ANOMALY":87.1104,"EPHEMERIS_TYPE":0,"CLASSIFICATION_TYPE":"U","NORAD_CAT_ID":24778,"ELEMENT_SET_NO":999,"REV_AT_EPOCH":51788,"BSTAR":0.0054670036,"MEAN_MOTION_DOT":0.00139299,"MEAN_MOTION_DDOT":0}]
